start=new Date('2023-05-10T00:00:00.000Z').valueOf();
sats=[{"SEMIMAJOR_AXIS":"6917.876","MEAN_MOTION_DOT":"0.00000345","MEAN_ANOMALY":"271.9183","RCS_SIZE":"LARGE","BSTAR":"0.00003977000000","TIME_SYSTEM":"UTC","MEAN_ELEMENT_THEORY":"SGP4","CENTER_NAME":"EARTH","FILE":"3904553","OBJECT_ID":"2022-045AW","ECCENTRICITY":"0.00012130","EPHEMERIS_TYPE":"0","ELEMENT_SET_NO":"999","CLASSIFICATION_TYPE":"U","INCLINATION":"53.2154","TLE_LINE2":"2 52375  53.2154 157.2035 0001213  88.1948 271.9183 15.08841557 59618","PERIAPSIS":"538.901","OBJECT_TYPE":"PAYLOAD","GP_ID":"231507963","TLE_LINE1":"1 52375U 22045AW  23129.29128406  .00000345  00000-0  39770-4 0  9996","OBJECT_NAME":"STARLINK-3785","LAUNCH_DATE":"2022-04-29","EPOCH":"2023-05-09T06:59:26.942784","PERIOD":"95.437","APOAPSIS":"540.580","MEAN_MOTION_DDOT":"0.0000000000000","SITE":"AFETR","DECAY_DATE":null,"REV_AT_EPOCH":"5961","ARG_OF_PERICENTER":"88.1948","RA_OF_ASC_NODE":"157.2035","COUNTRY_CODE":"US","NORAD_CAT_ID":"52375","REF_FRAME":"TEME","MEAN_MOTION":"15.08841557"},{"RCS_SIZE":"LARGE","MEAN_ELEMENT_THEORY":"SGP4","TIME_SYSTEM":"UTC","BSTAR":"0.00011173000000","CENTER_NAME":"EARTH","SEMIMAJOR_AXIS":"6917.875","MEAN_MOTION_DOT":"0.00001491","MEAN_ANOMALY":"267.4759","CLASSIFICATION_TYPE":"U","INCLINATION":"53.2158","ELEMENT_SET_NO":"999","PERIAPSIS":"538.900","TLE_LINE2":"2 52376  53.2158 157.2548 0001214  92.6372 267.4759 15.08841669 59617","OBJECT_TYPE":"PAYLOAD","FILE":"3904553","OBJECT_ID":"2022-045AX","ECCENTRICITY":"0.00012140","EPHEMERIS_TYPE":"0","LAUNCH_DATE":"2022-04-29","PERIOD":"95.437","EPOCH":"2023-05-09T06:43:33.187008","GP_ID":"231508701","TLE_LINE1":"1 52376U 22045AX  23129.28024522  .00001491  00000-0  11173-3 0  9999","OBJECT_NAME":"STARLINK-3767","COUNTRY_CODE":"US","RA_OF_ASC_NODE":"157.2548","NORAD_CAT_ID":"52376","MEAN_MOTION":"15.08841669","REF_FRAME":"TEME","APOAPSIS":"540.580","MEAN_MOTION_DDOT":"0.0000000000000","REV_AT_EPOCH":"5961","DECAY_DATE":null,"SITE":"AFETR","ARG_OF_PERICENTER":"92.6372"},{"FILE":"3904553","OBJECT_ID":"2022-045AY","ECCENTRICITY":"0.00009300","EPHEMERIS_TYPE":"0","TLE_LINE2":"2 52377  53.2160 157.3726 0000930  67.8207 292.2884 15.08842852 59604","PERIAPSIS":"539.093","ELEMENT_SET_NO":"999","CLASSIFICATION_TYPE":"U","INCLINATION":"53.2160","OBJECT_TYPE":"PAYLOAD","MEAN_MOTION_DOT":"0.00000461","SEMIMAJOR_AXIS":"6917.872","MEAN_ANOMALY":"292.2884","RCS_SIZE":"LARGE","CENTER_NAME":"EARTH","TIME_SYSTEM":"UTC","BSTAR":"0.00004706300000","MEAN_ELEMENT_THEORY":"SGP4","MEAN_MOTION_DDOT":"0.0000000000000","APOAPSIS":"540.380","ARG_OF_PERICENTER":"67.8207","SITE":"AFETR","DECAY_DATE":null,"REV_AT_EPOCH":"5960","NORAD_CAT_ID":"52377","COUNTRY_CODE":"US","RA_OF_ASC_NODE":"157.3726","REF_FRAME":"TEME","MEAN_MOTION":"15.08842852","TLE_LINE1":"1 52377U 22045AY  23129.30234766  .00000461  00000-0  47063-4 0  9990","GP_ID":"231507461","OBJECT_NAME":"STARLINK-3805","LAUNCH_DATE":"2022-04-29","EPOCH":"2023-05-09T07:15:22.837824","PERIOD":"95.437"},{"OBJECT_NAME":"STARLINK-3806","TLE_LINE1":"1 52378U 22045AZ  23129.47159955 -.00001202  00000-0 -57413-4 0  9991","GP_ID":"231507213","EPOCH":"2023-05-09T11:19:06.201120","PERIOD":"95.436","LAUNCH_DATE":"2022-04-29","ARG_OF_PERICENTER":"82.7742","SITE":"AFETR","REV_AT_EPOCH":"5964","DECAY_DATE":null,"APOAPSIS":"540.562","MEAN_MOTION_DDOT":"0.0000000000000","REF_FRAME":"TEME","MEAN_MOTION":"15.08860915","NORAD_CAT_ID":"52378","COUNTRY_CODE":"US","RA_OF_ASC_NODE":"156.3947","MEAN_ANOMALY":"277.3395","MEAN_MOTION_DOT":"-0.00001202","SEMIMAJOR_AXIS":"6917.816","CENTER_NAME":"EARTH","TIME_SYSTEM":"UTC","BSTAR":"-0.00005741300000","MEAN_ELEMENT_THEORY":"SGP4","RCS_SIZE":"LARGE","EPHEMERIS_TYPE":"0","FILE":"3904553","ECCENTRICITY":"0.00012730","OBJECT_ID":"2022-045AZ","OBJECT_TYPE":"PAYLOAD","TLE_LINE2":"2 52378  53.2157 156.3947 0001273  82.7742 277.3395 15.08860915 59641","PERIAPSIS":"538.801","ELEMENT_SET_NO":"999","CLASSIFICATION_TYPE":"U","INCLINATION":"53.2157"},{"OBJECT_NAME":"STARLINK-3800","GP_ID":"231483423","TLE_LINE1":"1 52379U 22045BA  23129.47529627  .00012943  00000-0  83022-3 0  9995","PERIOD":"95.439","EPOCH":"2023-05-09T11:24:25.597728","LAUNCH_DATE":"2022-04-29","DECAY_DATE":null,"REV_AT_EPOCH":"5964","SITE":"AFETR","ARG_OF_PERICENTER":"83.8434","MEAN_MOTION_DDOT":"0.0000000000000","APOAPSIS":"540.978","MEAN_MOTION":"15.08820513","REF_FRAME":"TEME","COUNTRY_CODE":"US","RA_OF_ASC_NODE":"156.3753","NORAD_CAT_ID":"52379","MEAN_ANOMALY":"276.2751","SEMIMAJOR_AXIS":"6917.940","MEAN_MOTION_DOT":"0.00012943","MEAN_ELEMENT_THEORY":"SGP4","BSTAR":"0.00083022000000","TIME_SYSTEM":"UTC","CENTER_NAME":"EARTH","RCS_SIZE":"LARGE","EPHEMERIS_TYPE":"0","OBJECT_ID":"2022-045BA","FILE":"3904515","ECCENTRICITY":"0.00016960","OBJECT_TYPE":"PAYLOAD","INCLINATION":"53.2146","CLASSIFICATION_TYPE":"U","ELEMENT_SET_NO":"999","PERIAPSIS":"538.632","TLE_LINE2":"2 52379  53.2146 156.3753 0001696  83.8434 276.2751 15.08820513 59648"},{"GP_ID":"231508201","TLE_LINE1":"1 52380U 22045BB  23129.32164680  .00000489  00000-0  48781-4 0  9991","OBJECT_NAME":"STARLINK-3793","LAUNCH_DATE":"2022-04-29","EPOCH":"2023-05-09T07:43:10.283520","PERIOD":"95.437","MEAN_MOTION_DDOT":"0.0000000000000","APOAPSIS":"540.561","ARG_OF_PERICENTER":"89.1094","SITE":"AFETR","DECAY_DATE":null,"REV_AT_EPOCH":"5975","NORAD_CAT_ID":"52380","RA_OF_ASC_NODE":"147.0964","COUNTRY_CODE":"US","REF_FRAME":"TEME","MEAN_MOTION":"15.08841978","MEAN_MOTION_DOT":"0.00000489","SEMIMAJOR_AXIS":"6917.874","MEAN_ANOMALY":"271.0034","RCS_SIZE":"LARGE","CENTER_NAME":"EARTH","BSTAR":"0.00004878100000","TIME_SYSTEM":"UTC","MEAN_ELEMENT_THEORY":"SGP4","FILE":"3904553","OBJECT_ID":"2022-045BB","ECCENTRICITY":"0.00011880","EPHEMERIS_TYPE":"0","TLE_LINE2":"2 52380  53.2152 147.0964 0001188  89.1094 271.0034 15.08841978 59752","PERIAPSIS":"538.917","ELEMENT_SET_NO":"999","CLASSIFICATION_TYPE":"U","INCLINATION":"53.2152","OBJECT_TYPE":"PAYLOAD"},{"TLE_LINE2":"2 52381  53.2153 156.7161 0001970  44.1902 315.9247 15.08835661 59631","PERIAPSIS":"538.396","ELEMENT_SET_NO":"999","CLASSIFICATION_TYPE":"U","INCLINATION":"53.2153","OBJECT_TYPE":"PAYLOAD","ECCENTRICITY":"0.00019700","FILE":"3904553","OBJECT_ID":"2022-045BC","EPHEMERIS_TYPE":"0","RCS_SIZE":"LARGE","CENTER_NAME":"EARTH","BSTAR":"0.00023103000000","TIME_SYSTEM":"UTC","MEAN_ELEMENT_THEORY":"SGP4","MEAN_MOTION_DOT":"0.00003390","SEMIMAJOR_AXIS":"6917.894","MEAN_ANOMALY":"315.9247","NORAD_CAT_ID":"52381","RA_OF_ASC_NODE":"156.7161","COUNTRY_CODE":"US","REF_FRAME":"TEME","MEAN_MOTION":"15.08835661","MEAN_MOTION_DDOT":"0.0000000000000","APOAPSIS":"541.121","ARG_OF_PERICENTER":"44.1902","SITE":"AFETR","REV_AT_EPOCH":"5963","DECAY_DATE":null,"LAUNCH_DATE":"2022-04-29","EPOCH":"2023-05-09T09:38:26.660544","PERIOD":"95.438","GP_ID":"231506962","TLE_LINE1":"1 52381U 22045BC  23129.40169746  .00003390  00000-0  23103-3 0  9993","OBJECT_NAME":"STARLINK-3803"},{"REF_FRAME":"TEME","MEAN_MOTION":"15.08847129","COUNTRY_CODE":"US","RA_OF_ASC_NODE":"156.7340","NORAD_CAT_ID":"52382","SITE":"AFETR","REV_AT_EPOCH":"5963","DECAY_DATE":null,"ARG_OF_PERICENTER":"84.4531","MEAN_MOTION_DDOT":"0.0000000000000","APOAPSIS":"540.718","EPOCH":"2023-05-09T09:33:07.346016","PERIOD":"95.437","LAUNCH_DATE":"2022-04-29","OBJECT_NAME":"STARLINK-3799","TLE_LINE1":"1 52382U 22045BD  23129.39800169  .00001191  00000-0  92884-4 0  9993","GP_ID":"231507713","OBJECT_TYPE":"PAYLOAD","ELEMENT_SET_NO":"999","CLASSIFICATION_TYPE":"U","INCLINATION":"53.2158","TLE_LINE2":"2 52382  53.2158 156.7340 0001437  84.4531 275.6625 15.08847129 59633","PERIAPSIS":"538.730","EPHEMERIS_TYPE":"0","ECCENTRICITY":"0.00014370","FILE":"3904553","OBJECT_ID":"2022-045BD","BSTAR":"0.00009288400000","TIME_SYSTEM":"UTC","MEAN_ELEMENT_THEORY":"SGP4","CENTER_NAME":"EARTH","RCS_SIZE":"LARGE","MEAN_ANOMALY":"275.6625","SEMIMAJOR_AXIS":"6917.859","MEAN_MOTION_DOT":"0.00001191"},{"MEAN_ANOMALY":"263.2285","MEAN_MOTION_DOT":"0.00002065","SEMIMAJOR_AXIS":"6917.869","CENTER_NAME":"EARTH","TIME_SYSTEM":"UTC","BSTAR":"0.00014774000000","MEAN_ELEMENT_THEORY":"SGP4","RCS_SIZE":"LARGE","EPHEMERIS_TYPE":"0","FILE":"3904553","OBJECT_ID":"2022-045BE","ECCENTRICITY":"0.00009440","OBJECT_TYPE":"PAYLOAD","TLE_LINE2":"2 52383  53.2158 146.3531 0000944  96.8814 263.2285 15.08843836 59786","PERIAPSIS":"539.081","ELEMENT_SET_NO":"999","INCLINATION":"53.2158","CLASSIFICATION_TYPE":"U","OBJECT_NAME":"STARLINK-3811","TLE_LINE1":"1 52383U 22045BE  23129.48724732  .00002065  00000-0  14774-3 0  9997","GP_ID":"231507964","EPOCH":"2023-05-09T11:41:38.168448","PERIOD":"95.437","LAUNCH_DATE":"2022-04-29","ARG_OF_PERICENTER":"96.8814","SITE":"AFETR","REV_AT_EPOCH":"5978","DECAY_DATE":null,"MEAN_MOTION_DDOT":"0.0000000000000","APOAPSIS":"540.387","REF_FRAME":"TEME","MEAN_MOTION":"15.08843836","NORAD_CAT_ID":"52383","COUNTRY_CODE":"US","RA_OF_ASC_NODE":"146.3531"},{"MEAN_MOTION_DDOT":"0.0000000000000","APOAPSIS":"540.366","SITE":"AFETR","DECAY_DATE":null,"REV_AT_EPOCH":"5594","ARG_OF_PERICENTER":"85.0322","RA_OF_ASC_NODE":"37.6983","COUNTRY_CODE":"US","NORAD_CAT_ID":"52451","REF_FRAME":"TEME","MEAN_MOTION":"15.08879889","GP_ID":"231507468","TLE_LINE1":"1 52451U 22049A   23129.18085260  .00006209  00000-0  40741-3 0  9997","OBJECT_NAME":"STARLINK-3870","LAUNCH_DATE":"2022-05-06","EPOCH":"2023-05-09T04:20:25.664640","PERIOD":"95.435","ECCENTRICITY":"0.00010730","FILE":"3904553","OBJECT_ID":"2022-049A","EPHEMERIS_TYPE":"0","ELEMENT_SET_NO":"999","INCLINATION":"53.2175","CLASSIFICATION_TYPE":"U","TLE_LINE2":"2 52451  53.2175  37.6983 0001073  85.0322 275.0792 15.08879889 55947","PERIAPSIS":"538.881","OBJECT_TYPE":"PAYLOAD","SEMIMAJOR_AXIS":"6917.758","MEAN_MOTION_DOT":"0.00006209","MEAN_ANOMALY":"275.0792","RCS_SIZE":"LARGE","TIME_SYSTEM":"UTC","BSTAR":"0.00040741000000","MEAN_ELEMENT_THEORY":"SGP4","CENTER_NAME":"EARTH"}];
